STARLINK-1822           
1 46719U 20073BB  22137.08196755 -.00000738  00000+0 -30657-4 0  9999
2 46719  53.0554 353.2808 0001620  62.2266 297.8887 15.06403114 87990
STARLINK-1823           
1 46720U 20073BC  22136.78192736  .00103548  00000+0  91249-3 0  9996
2 46720  53.0509 276.7397 0001181 286.0890  73.9996 15.67948216 88567
STARLINK-1825           
1 46722U 20073BE  22136.85943386  .00001980  00000+0  15178-3 0  9995
2 46722  53.0563  29.2810 0001731  60.4044 299.7117 15.06397400 86989
STARLINK-1826           
1 46723U 20073BF  22137.01793744 -.00000952  00000+0 -45050-4 0  9999
2 46723  53.0561 348.5756 0001727  73.9170 286.2009 15.06391936 88057
STARLINK-1828           
1 46725U 20073BH  22137.15430933  .00000481  00000+0  51170-4 0  9999
2 46725  53.0559  27.9480 0001732  55.3455 304.7697 15.06398817 87518
STARLINK-1829           
1 46726U 20073BJ  22137.17966102  .00001067  00000+0  90528-4 0  9995
2 46726  53.0547  12.8462 0002239  43.0096 317.1067 15.06392356 87721
STARLINK-1830           
1 46727U 20073BK  22136.87049464  .00003498  00000+0  25359-3 0  9994
2 46727  53.0546 349.2324 0001487  61.4803 298.6335 15.06400741 87559
STARLINK-1848           
1 46740U 20074B   22136.63183142  .00001529  00000+0  12159-3 0  9993
2 46740  53.0549 100.3028 0002332  50.3402 309.7792 15.06394860 86639
STARLINK-1865           
1 46741U 20074C   22137.17964587 -.00004370  00000+0 -27448-3 0  9990
2 46741  53.0563  92.8403 0001983  50.7851 309.3314 15.06423854 86802
STARLINK-1872           
1 46742U 20074D   22137.15016398  .00003837  00000+0  27635-3 0  9990
2 46742  53.0556  92.9711 0001833  61.6294 298.4879 15.06402675 86806
STARLINK-1892           
1 46743U 20074E   22136.90689388  .00001434  00000+0  11513-3 0  9997
2 46743  53.0542  94.0499 0001455  69.5384 290.5762 15.06399420 86756
STARLINK-1894           
1 46744U 20074F   22137.19071653 -.00001254  00000+0 -65289-4 0  9992
2 46744  53.0559  92.7899 0002313  48.1175 312.0011 15.06390527 86799
STARLINK-1898           
1 46745U 20074G   22137.03270840 -.00009907  00000+0 -21818-3 0  9997
2 46745  53.0563  47.1795 0005027 284.5864  75.4583 15.42177830 87403
STARLINK-1905           
1 46746U 20074H   22136.87372004  .00001809  00000+0  14034-3 0  9997
2 46746  53.0556  94.2169 0002175  43.7392 316.3769 15.06399045 86749
STARLINK-1908           
1 46747U 20074J   22136.58989829  .00000906  00000+0  79741-4 0  9999
2 46747  53.0572  95.4924 0001891  57.5198 302.5974 15.06401902 86720
STARLINK-1910           
1 46748U 20074K   22137.19439590  .00001025  00000+0  87723-4 0  9995
2 46748  53.0560  92.7816 0001599  55.0001 305.1138 15.06398623 86815
STARLINK-1911           
1 46749U 20074L   22137.13542319  .00000064  00000+0  23193-4 0  9997
2 46749  53.0566  93.0504 0001927  53.5710 306.5457 15.06395223 86806
STARLINK-1920           
1 46751U 20074N   22136.60095999  .00001376  00000+0  11123-3 0  9994
2 46751  53.0548  95.4401 0001622  60.0456 300.0694 15.06399117 86700
STARLINK-1921           
1 46752U 20074P   22136.61201879  .00000699  00000+0  65809-4 0  9990
2 46752  53.0546  95.3764 0002217  47.0954 313.0221 15.06399780 86705
STARLINK-1922           
1 46753U 20074Q   22137.17597661 -.00000541  00000+0 -17448-4 0  9994
2 46753  53.0552  92.8487 0001826  52.6076 307.5079 15.06386679 86813
STARLINK-1923           
1 46754U 20074R   22136.58622259 -.00000306  00000+0 -16316-5 0  9994
2 46754  53.0548  95.4934 0001732  52.0453 308.0692 15.06387449 86716
STARLINK-1924           
1 46755U 20074S   22137.18841334 -.00000177  00000+0  70105-5 0  9990
2 46755  53.0548  97.7924 0002407  46.5699 313.5490 15.06391907 86734
STARLINK-1925           
1 46756U 20074T   22136.91470139  .00000396  00000+0  45479-4 0  9999
2 46756  53.0549  99.0312 0002406  53.3839 306.7371 15.06399276 86686
STARLINK-1926           
1 46757U 20074U   22137.20958242  .00000460  00000+0  49812-4 0  9996
2 46757  53.0539  97.7102 0002252  44.2201 315.8968 15.06394806 86732
STARLINK-1928           
1 46758U 20074V   22137.16997889 -.00001248  00000+0 -64860-4 0  9999
2 46758  53.0545  97.8762 0002754  47.2437 312.8783 15.06400932 86745
STARLINK-1833           
1 46759U 20074W   22137.16537166  .00000542  00000+0  55328-4 0  9991
2 46759  53.0552 107.9054 0002120  37.5804 322.5333 15.06394877 86310
STARLINK-1896           
1 46760U 20074X   22137.17643090  .00001606  00000+0  12670-3 0  9992
2 46760  53.0560 107.8534 0001979  50.2881 309.8283 15.06394238 86606
STARLINK-1902           
1 46763U 20074AA  22136.86503012  .00003041  00000+0  79298-4 0  9994
2 46763  53.0570  79.0341 0003803  25.5641 334.5551 15.42177154 86961
STARLINK-1903           
1 46764U 20074AB  22136.90367020  .00002219  00000+0  16781-3 0  9990
2 46764  53.0565 109.0791 0002333  47.0634 313.0550 15.06399293 86542
STARLINK-1906           
1 46765U 20074AC  22137.22434904 -.00000885  00000+0 -40499-4 0  9996
2 46765  53.0536 107.6419 0001957  45.3519 314.7630 15.06396771 86316
