OBJECT_NAME,OBJECT_ID,EPOCH,MEAN_MOTION,ECCENTRICITY,INCLINATION,RA_OF_ASC_NODE,ARG_OF_PERICENTER,MEAN_ANOMALY,EPHEMERIS_TYPE,CLASSIFICATION_TYPE,NORAD_CAT_ID,ELEMENT_SET_NO,REV_AT_EPOCH,BSTAR,MEAN_MOTION_DOT,MEAN_MOTION_DDOT
STARLINK-1822,2020-073BB,2022-05-17T01:58:01.996320,15.06403114,.000162,53.0554,353.2808,62.2266,297.8887,0,U,46719,999,8799,-.30657E-4,-.738E-5,0
STARLINK-1823,2020-073BC,2022-05-16T18:45:58.523904,15.67948216,.0001181,53.0509,276.7397,286.0890,73.9996,0,U,46720,999,8856,.91249E-3,.103548E-2,0
STARLINK-1825,2020-073BE,2022-05-16T20:37:35.085504,15.06397400,.0001731,53.0563,29.2810,60.4044,299.7117,0,U,46722,999,8698,.15178E-3,.198E-4,0
STARLINK-1826,2020-073BF,2022-05-17T00:25:49.794816,15.06391936,.0001727,53.0561,348.5756,73.9170,286.2009,0,U,46723,999,8805,-.4505E-4,-.952E-5,0
STARLINK-1828,2020-073BH,2022-05-17T03:42:12.326112,15.06398817,.0001732,53.0559,27.9480,55.3455,304.7697,0,U,46725,999,8751,.5117E-4,.481E-5,0
STARLINK-1829,2020-073BJ,2022-05-17T04:18:42.712128,15.06392356,.0002239,53.0547,12.8462,43.0096,317.1067,0,U,46726,999,8772,.90528E-4,.1067E-4,0
STARLINK-1830,2020-073BK,2022-05-16T20:53:30.736896,15.06400741,.0001487,53.0546,349.2324,61.4803,298.6335,0,U,46727,999,8755,.25359E-3,.3498E-4,0
STARLINK-1848,2020-074B,2022-05-16T15:09:50.234688,15.06394860,.0002332,53.0549,100.3028,50.3402,309.7792,0,U,46740,999,8663,.12159E-3,.1529E-4,0
STARLINK-1865,2020-074C,2022-05-17T04:18:41.403168,15.06423854,.0001983,53.0563,92.8403,50.7851,309.3314,0,U,46741,999,8680,-.27448E-3,-.437E-4,0
STARLINK-1872,2020-074D,2022-05-17T03:36:14.167872,15.06402675,.0001833,53.0556,92.9711,61.6294,298.4879,0,U,46742,999,8680,.27635E-3,.3837E-4,0
STARLINK-1892,2020-074E,2022-05-16T21:45:55.631232,15.06399420,.0001455,53.0542,94.0499,69.5384,290.5762,0,U,46743,999,8675,.11513E-3,.1434E-4,0
STARLINK-1894,2020-074F,2022-05-17T04:34:37.908192,15.06390527,.0002313,53.0559,92.7899,48.1175,312.0011,0,U,46744,999,8679,-.65289E-4,-.1254E-4,0
STARLINK-1898,2020-074G,2022-05-17T00:47:06.005760,15.42177830,.0005027,53.0563,47.1795,284.5864,75.4583,0,U,46745,999,8740,-.21818E-3,-.9907E-4,0
STARLINK-1905,2020-074H,2022-05-16T20:58:09.411456,15.06399045,.0002175,53.0556,94.2169,43.7392,316.3769,0,U,46746,999,8674,.14034E-3,.1809E-4,0
STARLINK-1908,2020-074J,2022-05-16T14:09:27.212256,15.06401902,.0001891,53.0572,95.4924,57.5198,302.5974,0,U,46747,999,8672,.79741E-4,.906E-5,0
STARLINK-1910,2020-074K,2022-05-17T04:39:55.805760,15.06398623,.0001599,53.0560,92.7816,55.0001,305.1138,0,U,46748,999,8681,.87723E-4,.1025E-4,0
STARLINK-1911,2020-074L,2022-05-17T03:15:00.563616,15.06395223,.0001927,53.0566,93.0504,53.5710,306.5457,0,U,46749,999,8680,.23193E-4,.64E-6,0
STARLINK-1920,2020-074N,2022-05-16T14:25:22.943136,15.06399117,.0001622,53.0548,95.4401,60.0456,300.0694,0,U,46751,999,8670,.11123E-3,.1376E-4,0
STARLINK-1921,2020-074P,2022-05-16T14:41:18.423456,15.06399780,.0002217,53.0546,95.3764,47.0954,313.0221,0,U,46752,999,8670,.65809E-4,.699E-5,0
STARLINK-1922,2020-074Q,2022-05-17T04:13:24.379104,15.06386679,.0001826,53.0552,92.8487,52.6076,307.5079,0,U,46753,999,8681,-.17448E-4,-.541E-5,0
STARLINK-1923,2020-074R,2022-05-16T14:04:09.631776,15.06387449,.0001732,53.0548,95.4934,52.0453,308.0692,0,U,46754,999,8671,-.16316E-5,-.306E-5,0
STARLINK-1924,2020-074S,2022-05-17T04:31:18.912576,15.06391907,.0002407,53.0548,97.7924,46.5699,313.5490,0,U,46755,999,8673,.70105E-5,-.177E-5,0
STARLINK-1925,2020-074T,2022-05-16T21:57:10.200096,15.06399276,.0002406,53.0549,99.0312,53.3839,306.7371,0,U,46756,999,8668,.45479E-4,.396E-5,0
STARLINK-1926,2020-074U,2022-05-17T05:01:47.921088,15.06394806,.0002252,53.0539,97.7102,44.2201,315.8968,0,U,46757,999,8673,.49812E-4,.46E-5,0
STARLINK-1928,2020-074V,2022-05-17T04:04:46.176096,15.06400932,.0002754,53.0545,97.8762,47.2437,312.8783,0,U,46758,999,8674,-.6486E-4,-.1248E-4,0
STARLINK-1833,2020-074W,2022-05-17T03:58:08.111424,15.06394877,.000212,53.0552,107.9054,37.5804,322.5333,0,U,46759,999,8631,.55328E-4,.542E-5,0
STARLINK-1896,2020-074X,2022-05-17T04:14:03.629760,15.06394238,.0001979,53.0560,107.8534,50.2881,309.8283,0,U,46760,999,8660,.1267E-3,.1606E-4,0
STARLINK-1902,2020-074AA,2022-05-16T20:45:38.602368,15.42177154,.0003803,53.0570,79.0341,25.5641,334.5551,0,U,46763,999,8696,.79298E-4,.3041E-4,0
STARLINK-1903,2020-074AB,2022-05-16T21:41:17.105280,15.06399293,.0002333,53.0565,109.0791,47.0634,313.0550,0,U,46764,999,8654,.16781E-3,.2219E-4,0
STARLINK-1906,2020-074AC,2022-05-17T05:23:03.757056,15.06396771,.0001957,53.0536,107.6419,45.3519,314.7630,0,U,46765,999,8631,-.40499E-4,-.885E-5,0
